[{"OBJECT_NAME":"STARLINK-3355","OBJECT_ID":"2022-001F","EPOCH":"2026-03-09T11:24:42.733440","MEAN_MOTION":15.0883015,"ECCENTRICITY":0.00013965,"INCLINATION":53.2175,"RA_OF_ASC_NODE":160.0827,"ARG_OF_PERICENTER":109.4344,"MEAN_ANOMALY":250.6799,"EPHEMERIS_TYPE":0,"CLASSIFICATION_TYPE":"U","NORAD_CAT_ID":50808,"ELEMENT_SET_NO":999,"REV_AT_EPOCH":23051,"BSTAR":-3.907786e-6,"MEAN_MOTION_DOT":-3.5e-6,"MEAN_MOTION_DDOT":0},{"OBJECT_NAME":"OBJECT D","OBJECT_ID":"2025-013D","EPOCH":"2026-03-09T22:45:56.369376","MEAN_MOTION":15.10588544,"ECCENTRICITY":0.0008827,"INCLINATION":97.6457,"RA_OF_ASC_NODE":238.3603,"ARG_OF_PERICENTER":18.3993,"MEAN_ANOMALY":341.7554,"EPHEMERIS_TYPE":0,"CLASSIFICATION_TYPE":"U","NORAD_CAT_ID":62732,"ELEMENT_SET_NO":999,"REV_AT_EPOCH":6229,"BSTAR":0.00036300228,"MEAN_MOTION_DOT":5.935e-5,"MEAN_MOTION_DDOT":0}]
